UNKNOWN                 
1 82162U          22198.30436519  .00001372  00000+0  24534-2 0  9994
2 82162 100.3750  53.6973 0060414 352.5183   7.5039 13.43261893336671
UNKNOWN                 
1 82168U          22199.38692905  .00019152  00000+0  23645-2 0  9999
2 82168  74.0056  76.1315 0013747 119.0079 241.2478 14.82742899305720
UNKNOWN                 
1 82180U          22195.07859907  .00008385  00000+0  18618-2 0  9992
2 82180  65.6625  79.6284 0459641 120.8990 243.8129 14.08023424423821
UNKNOWN                 
1 82187U          22199.41796053  .00012964  00000+0  21031-2 0  9994
2 82187  70.9395  82.5543 0058635 267.2422  92.2017 14.70139969460617
UNKNOWN                 
1 82189U          22196.20269115  .00000183  00000+0  75296-4 0  9998
2 82189  74.0338 170.9365 0017759 302.3270  57.6162 14.33759868453689
UNKNOWN                 
1 82199U          22199.47795992  .00000341  00000+0  29297-3 0  9993
2 82199  82.9668  86.8617 0037471 326.6823 208.3150 13.83761077437633
UNKNOWN                 
1 82205U          22199.44575406  .00001478  00000+0  35189-3 0  9993
2 82205  62.9987 143.1024 0611850 170.4862 190.8424 13.81325409435516
UNKNOWN                 
1 82223U          22197.28904659  .00001697  00000+0  10818-2 0  9993
2 82223  99.4001  22.3819 0075095 188.4698 171.5205 14.03703332273602
UNKNOWN                 
1 82227U          22199.42166512 -.00000076  00000+0 -23154-3 0  9993
2 82227 101.8769 170.3865 0000664 353.7998 161.7232 12.41993343486802
UNKNOWN                 
1 82250U          22199.23149804  .00001569  00000+0  10285-2 0  9999
2 82250  98.9477 104.5610 0088324  73.2799  78.1343 14.01609365441776
UNKNOWN                 
1 82268U          22198.30828167  .00003088  00000+0  15761-2 0  9993
2 82268  99.1318 302.8990 0053099 255.9852 155.6349 14.15714546559260
UNKNOWN                 
1 82272U          22199.54848641  .00000398  00000+0  13868-2 0  9991
2 82272  67.5254 289.5458 0760632 181.6368 178.2127 12.32231010118698
UNKNOWN                 
1 82284U          22198.20545446  .00005582  00000+0  20801-2 0  9998
2 82284  99.5692  13.3205 0104656  63.7627 297.4264 14.29416293493194
UNKNOWN                 
1 82285U          22199.17925936  .00004445  00000+0  43583-2 0  9991
2 82285 101.9894   0.2173 0349597 156.1920 205.5828 13.55756792426375
UNKNOWN                 
1 82295U          22195.20852345  .00000854  00000+0  36000-3 0  9992
2 82295  66.6214 174.4633 0128457  17.9308 342.6257 14.26094700401542
UNKNOWN                 
1 82298U          22198.49645029  .00003452  00000+0  17555-2 0  9998
2 82298  99.0608 292.3773 0061135 261.3939  98.0304 14.15579843389141
UNKNOWN                 
1 82303U          22199.58132212  .00009937  00000+0  20879-1 0  9997
2 82303  81.9448 293.8048 0076780 164.6625 258.3101 13.30061457346412
UNKNOWN                 
1 82311U          22198.50439310  .00000672  00000+0  10421-2 0  9996
2 82311  99.5098 289.7701 0112948 195.7710 163.9897 13.52220957382020
UNKNOWN                 
1 82314U          22198.24726586  .00017796  00000+0  62561-3 0  9992
2 82314  99.2289 351.3524 0164859 325.9248  33.1480 15.17459604354191
UNKNOWN                 
1 82320U          22198.01819158  .00002049  00000+0  73137-3 0  9998
2 82320  99.8274 258.0391 0159507 198.8843 160.6377 14.28648212450199
UNKNOWN                 
1 82322U          22198.67470808  .00005239  00000+0  12145-2 0  9992
2 82322  98.5666 275.2160 0071784 296.0681  63.3138 14.53914652383694
UNKNOWN                 
1 82363U          22197.68689484  .00001006  00000+0  16679-2 0  9993
2 82363  66.9390 336.0156 0468321 239.6764 115.7172 13.13968415126590
UNKNOWN                 
1 82369U 99025    22199.36184874  .00000314  00000+0  24768-3 0  9994
2 82369  99.0065 230.4035 0084779 165.5884 194.7726 13.97116150383495
UNKNOWN                 
1 82381U          22198.26411093  .00003453  00000+0  10953-2 0  9994
2 82381  98.4805  34.2795 0017873  11.6214 348.5384 14.40557306329823
UNKNOWN                 
1 82383U          22199.40020807  .00016997  00000+0  20452-2 0  9994
2 82383  98.2710 258.7198 0002482 323.8222  36.2822 14.83976972362595
UNKNOWN                 
1 82402U          22199.60026663  .00002112  00000+0  23718-3 0  9997
2 82402  86.6704 323.7237 0009160 323.3320  36.7277 14.86252849268959
UNKNOWN                 
1 82410U          22196.07906584  .00000214  00000+0  29232-3 0  9991
2 82410  66.6580  88.3825 0058040 142.3837 218.1315 13.76178954415133
UNKNOWN                 
1 82428U          22198.77099656  .00018025  00000+0  14027-1 0  9995
2 82428  63.1793  25.2886 0124154  58.2169 303.0901 13.88926321247613
UNKNOWN                 
1 82432U 93036    22194.25459475  .00000971  00000+0  24674-3 0  9991
2 82432  74.0081 185.3717 0064995 292.5712  66.8579 14.50936289301411
UNKNOWN                 
1 82448U          22199.25101443  .00002247  00000+0  25256-3 0  9996
2 82448  85.8803 132.8825 0012059  26.0286 334.1542 14.86205872251463
UNKNOWN                 
1 82451U          22199.54641253  .00019792  00000+0  18368-2 0  9998
2 82451  66.5355 257.4322 0254291 325.1737  33.2960 14.73019128949717
UNKNOWN                 
1 82453U          22199.11940140  .00000014  00000+0  43491-3 0  9993
2 82453 101.9959 149.5918 0094532 349.7025  10.2102 12.39548485391961
UNKNOWN                 
1 82458U          22199.31302502  .00001964  00000+0  11356-2 0  9993
2 82458  66.5113 144.8966 0057497 132.0143 228.5859 14.10258043434025
UNKNOWN                 
1 82464U          22197.71250094  .00006304  00000+0  17593-2 0  9992
2 82464  71.0002 307.3670 0079117 254.7192 176.0916 14.44769925453819
UNKNOWN                 
1 82475U          22198.57286077  .00000794  00000+0  49301-3 0  9999
2 82475  99.1195 240.6377 0103646 328.8403  30.6645 14.05497328371041
UNKNOWN                 
1 82484U          22199.40605689  .00000118  00000+0  23077-3 0  9998
2 82484  99.5083 260.4549 0045519  98.8221 261.8075 13.55159790422198
UNKNOWN                 
1 82494U 93036    22198.42961976  .00002453  00000+0  62837-3 0  9996
2 82494  74.0207 253.2075 0013569 323.3643  36.6589 14.50836842301610
UNKNOWN                 
1 82500U          22198.41987015  .00001766  00000+0  10272-2 0  9995
2 82500  70.9721  84.2010 0141737 186.5661 173.3605 14.05065075443441
UNKNOWN                 
1 82517U          22199.10601150  .00009894  00000+0  27050-2 0  9995
2 82517  86.3871 253.2230 0019218  41.9326 318.3344 14.47054403243479
UNKNOWN                 
1 82524U          22198.72625002  .00001707  00000+0  76082-3 0  9997
2 82524  73.2914   3.8895 0175240 181.8037 192.4860 14.15843560399984
UNKNOWN                 
1 82526U          22198.89000364  .00001539  00000+0  99227-3 0  9994
2 82526  99.2247 246.5995 0104696 160.4761 200.0459 14.01879108347136
UNKNOWN                 
1 82529U          22197.58731094  .00000477  00000+0  81449-3 0  9990
2 82529  99.7924 305.8292 0246873  30.9312 342.8896 13.38838969422999
UNKNOWN                 
1 82545U          22198.23460464 -.00000028  00000+0  38669-3 0  9990
2 82545  64.8859  29.4265 0174625 174.0528 186.2525 11.30782936298194
UNKNOWN                 
1 82560U          22198.02678810  .00000739  00000+0  68753-3 0  9995
2 82560 100.0391  37.4250 0010117 343.9294 168.1810 13.85875403439197
UNKNOWN                 
1 82561U          22199.53961986  .00005289  00000+0  15229-2 0  9996
2 82561  63.1131 172.9373 0507723   7.7362  91.4132 13.90036860438203
UNKNOWN                 
1 82576U          22193.04105842  .00001595  00000+0  10418-2 0  9994
2 82576  99.2436 228.2296 0120163 209.2490 150.1910 14.00329883 58843
UNKNOWN                 
1 82597U          22199.31732188  .00000765  00000+0  31881-3 0  9998
2 82597  66.7724 161.1495 0100346 155.7920 204.7942 14.28824266450960
UNKNOWN                 
1 82616U          22199.45679990  .00029753  00000+0  31262-2 0  9996
2 82616  97.2903 268.5522 0086053  88.0705 273.0364 14.86652655381538
UNKNOWN                 
1 82617U          22198.32838519  .00000332  00000+0  98945-4 0  9991
2 82617  74.0284  53.2827 0041264 303.1005  56.6195 14.46481533456733
UNKNOWN                 
1 82627U          22198.90534932  .00001028  00000+0  27603-2 0  9992
2 82627  82.4765  53.6879 0012105 322.3447  98.7616 13.13973740415343
UNKNOWN                 
1 82642U          22199.59419034  .00001266  00000+0  81593-3 0  9993
2 82642  99.0015 109.1378 0143954  92.5106 269.2547 13.99824870441809
UNKNOWN                 
1 82683U 99057    22199.26217209  .00000604  00000+0  26354-3 0  9991
2 82683  98.1287 350.8552 0227952  57.3503 304.9443 14.14046167286188
UNKNOWN                 
1 82693U          22198.83926162  .00001464  00000+0  19875-2 0  9993
2 82693 100.5383  42.5509 0041641 216.6152 143.2137 13.60963996384080
UNKNOWN                 
1 82698U          22198.76891996  .00000452  00000+0  32506-3 0  9999
2 82698  61.6083 220.2562 0724533 196.7879 160.7955 13.22020968373491
UNKNOWN                 
1 82708U          22199.45572713  .00000580  00000+0  24896-2 0  9995
2 82708 102.1478 271.9009 0058048 269.6918  89.7520 12.87437493363342
UNKNOWN                 
1 82729U          22199.53724042  .00001141  00000+0  40186-2 0  9995
2 82729  67.9543 132.5195 0832654 141.0224 225.3920 12.16225832383933
UNKNOWN                 
1 82737U          22199.18855485  .00005765  00000+0  74709-2 0  9995
2 82737 102.8328 357.6352 0302411 359.7958   0.2996 13.45392722377484
UNKNOWN                 
1 82739U          22195.33911079  .00000553  00000+0  53307-3 0  9994
2 82739  99.0336  30.7300 0183694  20.6521 156.1321 13.76879607434128
UNKNOWN                 
1 82741U          22199.20248465  .00001726  00000+0  21707-2 0  9990
2 82741 102.8677 190.2527 0210214 148.3223 213.0752 13.57418710427879
UNKNOWN                 
1 82742U          22195.44493738  .00003834  00000+0  16093-2 0  9992
2 82742  99.5733 290.3938 0053677   1.7092 358.4259 14.25799064365256
